<?xml version="1.0" encoding="UTF-8"?>
<ndm xmlns:xsi="http://www.w3.org/2001/XMLSchema-instance" xsi:noNamespaceSchemaLocation="https://sanaregistry.org/r/ndmxml_unqualified/ndmxml-2.0.0-master-2.0.xsd">
<omm id="CCSDS_OMM_VERS" version="2.0">
<header><CREATION_DATE/><ORIGINATOR/></header><body><segment><metadata><OBJECT_NAME>QIANFAN-65</OBJECT_NAME><OBJECT_ID>2025-016L</OBJECT_ID><CENTER_NAME>EARTH</CENTER_NAME><REF_FRAME>TEME</REF_FRAME><TIME_SYSTEM>UTC</TIME_SYSTEM><MEAN_ELEMENT_THEORY>SGP4</MEAN_ELEMENT_THEORY></metadata><data><meanElements><EPOCH>2025-12-21T13:03:33.357312</EPOCH><MEAN_MOTION>13.50986806</MEAN_MOTION><ECCENTRICITY>.0012448</ECCENTRICITY><INCLINATION>88.9766</INCLINATION><RA_OF_ASC_NODE>102.1496</RA_OF_ASC_NODE><ARG_OF_PERICENTER>321.8548</ARG_OF_PERICENTER><MEAN_ANOMALY>38.1721</MEAN_ANOMALY></meanElements><tleParameters><EPHEMERIS_TYPE>0</EPHEMERIS_TYPE><CLASSIFICATION_TYPE>U</CLASSIFICATION_TYPE><NORAD_CAT_ID>62795</NORAD_CAT_ID><ELEMENT_SET_NO>999</ELEMENT_SET_NO><REV_AT_EPOCH>4843</REV_AT_EPOCH><BSTAR>.22519E-3</BSTAR><MEAN_MOTION_DOT>.157E-5</MEAN_MOTION_DOT><MEAN_MOTION_DDOT>0</MEAN_MOTION_DDOT></tleParameters></data></segment></body></omm>
<omm id="CCSDS_OMM_VERS" version="2.0">
<header><CREATION_DATE/><ORIGINATOR/></header><body><segment><metadata><OBJECT_NAME>QIANFAN-66</OBJECT_NAME><OBJECT_ID>2025-016M</OBJECT_ID><CENTER_NAME>EARTH</CENTER_NAME><REF_FRAME>TEME</REF_FRAME><TIME_SYSTEM>UTC</TIME_SYSTEM><MEAN_ELEMENT_THEORY>SGP4</MEAN_ELEMENT_THEORY></metadata><data><meanElements><EPOCH>2025-12-21T10:11:45.755232</EPOCH><MEAN_MOTION>13.50979597</MEAN_MOTION><ECCENTRICITY>.0013495</ECCENTRICITY><INCLINATION>88.9785</INCLINATION><RA_OF_ASC_NODE>102.1338</RA_OF_ASC_NODE><ARG_OF_PERICENTER>316.9200</ARG_OF_PERICENTER><MEAN_ANOMALY>43.0894</MEAN_ANOMALY></meanElements><tleParameters><EPHEMERIS_TYPE>0</EPHEMERIS_TYPE><CLASSIFICATION_TYPE>U</CLASSIFICATION_TYPE><NORAD_CAT_ID>62796</NORAD_CAT_ID><ELEMENT_SET_NO>999</ELEMENT_SET_NO><REV_AT_EPOCH>4846</REV_AT_EPOCH><BSTAR>.22773E-3</BSTAR><MEAN_MOTION_DOT>.159E-5</MEAN_MOTION_DOT><MEAN_MOTION_DDOT>0</MEAN_MOTION_DDOT></tleParameters></data></segment></body></omm>
<omm id="CCSDS_OMM_VERS" version="2.0">
<header><CREATION_DATE/><ORIGINATOR/></header><body><segment><metadata><OBJECT_NAME>QIANFAN-67</OBJECT_NAME><OBJECT_ID>2025-016N</OBJECT_ID><CENTER_NAME>EARTH</CENTER_NAME><REF_FRAME>TEME</REF_FRAME><TIME_SYSTEM>UTC</TIME_SYSTEM><MEAN_ELEMENT_THEORY>SGP4</MEAN_ELEMENT_THEORY></metadata><data><meanElements><EPOCH>2025-12-21T10:17:50.830656</EPOCH><MEAN_MOTION>13.50983796</MEAN_MOTION><ECCENTRICITY>.0013575</ECCENTRICITY><INCLINATION>88.9776</INCLINATION><RA_OF_ASC_NODE>102.1581</RA_OF_ASC_NODE><ARG_OF_PERICENTER>324.5803</ARG_OF_PERICENTER><MEAN_ANOMALY>35.4446</MEAN_ANOMALY></meanElements><tleParameters><EPHEMERIS_TYPE>0</EPHEMERIS_TYPE><CLASSIFICATION_TYPE>U</CLASSIFICATION_TYPE><NORAD_CAT_ID>62797</NORAD_CAT_ID><ELEMENT_SET_NO>999</ELEMENT_SET_NO><REV_AT_EPOCH>4843</REV_AT_EPOCH><BSTAR>.24143E-3</BSTAR><MEAN_MOTION_DOT>.168E-5</MEAN_MOTION_DOT><MEAN_MOTION_DDOT>0</MEAN_MOTION_DDOT></tleParameters></data></segment></body></omm>
<omm id="CCSDS_OMM_VERS" version="2.0">
<header><CREATION_DATE/><ORIGINATOR/></header><body><segment><metadata><OBJECT_NAME>QIANFAN-68</OBJECT_NAME><OBJECT_ID>2025-016P</OBJECT_ID><CENTER_NAME>EARTH</CENTER_NAME><REF_FRAME>TEME</REF_FRAME><TIME_SYSTEM>UTC</TIME_SYSTEM><MEAN_ELEMENT_THEORY>SGP4</MEAN_ELEMENT_THEORY></metadata><data><meanElements><EPOCH>2025-12-21T10:05:51.961920</EPOCH><MEAN_MOTION>13.50986169</MEAN_MOTION><ECCENTRICITY>.0013596</ECCENTRICITY><INCLINATION>88.9779</INCLINATION><RA_OF_ASC_NODE>102.2044</RA_OF_ASC_NODE><ARG_OF_PERICENTER>322.6489</ARG_OF_PERICENTER><MEAN_ANOMALY>37.3716</MEAN_ANOMALY></meanElements><tleParameters><EPHEMERIS_TYPE>0</EPHEMERIS_TYPE><CLASSIFICATION_TYPE>U</CLASSIFICATION_TYPE><NORAD_CAT_ID>62798</NORAD_CAT_ID><ELEMENT_SET_NO>999</ELEMENT_SET_NO><REV_AT_EPOCH>4841</REV_AT_EPOCH><BSTAR>.23568E-3</BSTAR><MEAN_MOTION_DOT>.164E-5</MEAN_MOTION_DOT><MEAN_MOTION_DDOT>0</MEAN_MOTION_DDOT></tleParameters></data></segment></body></omm>
<omm id="CCSDS_OMM_VERS" version="2.0">
<header><CREATION_DATE/><ORIGINATOR/></header><body><segment><metadata><OBJECT_NAME>QIANFAN-69</OBJECT_NAME><OBJECT_ID>2025-016Q</OBJECT_ID><CENTER_NAME>EARTH</CENTER_NAME><REF_FRAME>TEME</REF_FRAME><TIME_SYSTEM>UTC</TIME_SYSTEM><MEAN_ELEMENT_THEORY>SGP4</MEAN_ELEMENT_THEORY></metadata><data><meanElements><EPOCH>2025-12-21T10:29:35.377728</EPOCH><MEAN_MOTION>13.50988898</MEAN_MOTION><ECCENTRICITY>.0014364</ECCENTRICITY><INCLINATION>88.9758</INCLINATION><RA_OF_ASC_NODE>102.0702</RA_OF_ASC_NODE><ARG_OF_PERICENTER>323.6267</ARG_OF_PERICENTER><MEAN_ANOMALY>36.3906</MEAN_ANOMALY></meanElements><tleParameters><EPHEMERIS_TYPE>0</EPHEMERIS_TYPE><CLASSIFICATION_TYPE>U</CLASSIFICATION_TYPE><NORAD_CAT_ID>62799</NORAD_CAT_ID><ELEMENT_SET_NO>999</ELEMENT_SET_NO><REV_AT_EPOCH>4845</REV_AT_EPOCH><BSTAR>.22702E-3</BSTAR><MEAN_MOTION_DOT>.159E-5</MEAN_MOTION_DOT><MEAN_MOTION_DDOT>0</MEAN_MOTION_DDOT></tleParameters></data></segment></body></omm>
<omm id="CCSDS_OMM_VERS" version="2.0">
<header><CREATION_DATE/><ORIGINATOR/></header><body><segment><metadata><OBJECT_NAME>QIANFAN-70</OBJECT_NAME><OBJECT_ID>2025-016R</OBJECT_ID><CENTER_NAME>EARTH</CENTER_NAME><REF_FRAME>TEME</REF_FRAME><TIME_SYSTEM>UTC</TIME_SYSTEM><MEAN_ELEMENT_THEORY>SGP4</MEAN_ELEMENT_THEORY></metadata><data><meanElements><EPOCH>2025-12-21T10:53:19.616064</EPOCH><MEAN_MOTION>13.50979863</MEAN_MOTION><ECCENTRICITY>.0013826</ECCENTRICITY><INCLINATION>88.9779</INCLINATION><RA_OF_ASC_NODE>102.2089</RA_OF_ASC_NODE><ARG_OF_PERICENTER>313.0096</ARG_OF_PERICENTER><MEAN_ANOMALY>46.9896</MEAN_ANOMALY></meanElements><tleParameters><EPHEMERIS_TYPE>0</EPHEMERIS_TYPE><CLASSIFICATION_TYPE>U</CLASSIFICATION_TYPE><NORAD_CAT_ID>62800</NORAD_CAT_ID><ELEMENT_SET_NO>999</ELEMENT_SET_NO><REV_AT_EPOCH>4841</REV_AT_EPOCH><BSTAR>.23038E-3</BSTAR><MEAN_MOTION_DOT>.161E-5</MEAN_MOTION_DOT><MEAN_MOTION_DDOT>0</MEAN_MOTION_DDOT></tleParameters></data></segment></body></omm>
<omm id="CCSDS_OMM_VERS" version="2.0">
<header><CREATION_DATE/><ORIGINATOR/></header><body><segment><metadata><OBJECT_NAME>QIANFAN-71</OBJECT_NAME><OBJECT_ID>2025-016S</OBJECT_ID><CENTER_NAME>EARTH</CENTER_NAME><REF_FRAME>TEME</REF_FRAME><TIME_SYSTEM>UTC</TIME_SYSTEM><MEAN_ELEMENT_THEORY>SGP4</MEAN_ELEMENT_THEORY></metadata><data><meanElements><EPOCH>2025-12-21T10:47:17.231136</EPOCH><MEAN_MOTION>13.50979389</MEAN_MOTION><ECCENTRICITY>.0014338</ECCENTRICITY><INCLINATION>88.9773</INCLINATION><RA_OF_ASC_NODE>102.1882</RA_OF_ASC_NODE><ARG_OF_PERICENTER>327.4733</ARG_OF_PERICENTER><MEAN_ANOMALY>32.5534</MEAN_ANOMALY></meanElements><tleParameters><EPHEMERIS_TYPE>0</EPHEMERIS_TYPE><CLASSIFICATION_TYPE>U</CLASSIFICATION_TYPE><NORAD_CAT_ID>62801</NORAD_CAT_ID><ELEMENT_SET_NO>999</ELEMENT_SET_NO><REV_AT_EPOCH>4841</REV_AT_EPOCH><BSTAR>.21314E-3</BSTAR><MEAN_MOTION_DOT>.15E-5</MEAN_MOTION_DOT><MEAN_MOTION_DDOT>0</MEAN_MOTION_DDOT></tleParameters></data></segment></body></omm>
<omm id="CCSDS_OMM_VERS" version="2.0">
<header><CREATION_DATE/><ORIGINATOR/></header><body><segment><metadata><OBJECT_NAME>QIANFAN-72</OBJECT_NAME><OBJECT_ID>2025-016T</OBJECT_ID><CENTER_NAME>EARTH</CENTER_NAME><REF_FRAME>TEME</REF_FRAME><TIME_SYSTEM>UTC</TIME_SYSTEM><MEAN_ELEMENT_THEORY>SGP4</MEAN_ELEMENT_THEORY></metadata><data><meanElements><EPOCH>2025-12-21T11:10:58.888704</EPOCH><MEAN_MOTION>13.50986860</MEAN_MOTION><ECCENTRICITY>.0017758</ECCENTRICITY><INCLINATION>88.9763</INCLINATION><RA_OF_ASC_NODE>102.1991</RA_OF_ASC_NODE><ARG_OF_PERICENTER>334.4200</ARG_OF_PERICENTER><MEAN_ANOMALY>25.6071</MEAN_ANOMALY></meanElements><tleParameters><EPHEMERIS_TYPE>0</EPHEMERIS_TYPE><CLASSIFICATION_TYPE>U</CLASSIFICATION_TYPE><NORAD_CAT_ID>62802</NORAD_CAT_ID><ELEMENT_SET_NO>999</ELEMENT_SET_NO><REV_AT_EPOCH>4840</REV_AT_EPOCH><BSTAR>.20874E-3</BSTAR><MEAN_MOTION_DOT>.147E-5</MEAN_MOTION_DOT><MEAN_MOTION_DDOT>0</MEAN_MOTION_DDOT></tleParameters></data></segment></body></omm>

</ndm>
