QIANFAN-65              
1 62795U 25016L   25355.54413608  .00000157  00000+0  22519-3 0  9998
2 62795  88.9766 102.1496 0012448 321.8548  38.1721 13.50986806 48435
QIANFAN-66              
1 62796U 25016M   25355.42483513  .00000159  00000+0  22773-3 0  9992
2 62796  88.9785 102.1338 0013495 316.9200  43.0894 13.50979597 48463
QIANFAN-67              
1 62797U 25016N   25355.42906054  .00000168  00000+0  24143-3 0  9996
2 62797  88.9776 102.1581 0013575 324.5803  35.4446 13.50983796 48438
QIANFAN-68              
1 62798U 25016P   25355.42074030  .00000164  00000+0  23568-3 0  9993
2 62798  88.9779 102.2044 0013596 322.6489  37.3716 13.50986169 48415
QIANFAN-69              
1 62799U 25016Q   25355.43721502  .00000159  00000+0  22702-3 0  9991
2 62799  88.9758 102.0702 0014364 323.6267  36.3906 13.50988898 48456
QIANFAN-70              
1 62800U 25016R   25355.45369926  .00000161  00000+0  23038-3 0  9990
2 62800  88.9779 102.2089 0013826 313.0096  46.9896 13.50979863 48410
QIANFAN-71              
1 62801U 25016S   25355.44950499  .00000150  00000+0  21314-3 0  9994
2 62801  88.9773 102.1882 0014338 327.4733  32.5534 13.50979389 48414
QIANFAN-72              
1 62802U 25016T   25355.46595936  .00000147  00000+0  20874-3 0  9994
2 62802  88.9763 102.1991 0017758 334.4200  25.6071 13.50986860 48401
